[{"OBJECT_NAME":"STARLINK-36352","OBJECT_ID":"2026-016G","EPOCH":"2026-03-09T16:20:23.214336","MEAN_MOTION":15.75202999,"ECCENTRICITY":0.00018531,"INCLINATION":97.2836,"RA_OF_ASC_NODE":129.1934,"ARG_OF_PERICENTER":70.8878,"MEAN_ANOMALY":289.2588,"EPHEMERIS_TYPE":0,"CLASSIFICATION_TYPE":"U","NORAD_CAT_ID":67567,"ELEMENT_SET_NO":999,"REV_AT_EPOCH":680,"BSTAR":0.0014643399,"MEAN_MOTION_DOT":0.00224247,"MEAN_MOTION_DDOT":0},{"OBJECT_NAME":"WT 1A","OBJECT_ID":"2019-032F","EPOCH":"2026-03-09T22:33:15.206112","MEAN_MOTION":15.7566877,"ECCENTRICITY":0.00079486,"INCLINATION":44.975,"RA_OF_ASC_NODE":76.6684,"ARG_OF_PERICENTER":87.7,"MEAN_ANOMALY":272.4811,"EPHEMERIS_TYPE":0,"CLASSIFICATION_TYPE":"U","NORAD_CAT_ID":44315,"ELEMENT_SET_NO":999,"REV_AT_EPOCH":37389,"BSTAR":0.0012390673,"MEAN_MOTION_DOT":0.00199702,"MEAN_MOTION_DDOT":0}]
